NORAD_CAT_ID,OBJECT_NAME,OBJECT_TYPE,EPOCH,MEAN_MOTION,ECCENTRICITY,INCLINATION,RA_OF_ASC_NODE,ARG_OF_PERICENTER,MEAN_ANOMALY,BSTAR,MEAN_MOTION_DOT,MEAN_MOTION_DDOT,TLE_LINE0,TLE_LINE1,TLE_LINE2,SEMIMAJOR_AXIS,PERIOD,APOGEE,PERIGEE,DECAYED
53414.0,STARLINK-4304,PAYLOAD,2023-01-18 06:40:19,15.08824255,0.000236,53.2162,220.5647,36.3365,323.7787,4.3892e-05,4.1e-06,0.0,0 STARLINK-4304,1 53414U 22097AC  23018.27799884  .00000410  00000-0  43892-4 0  9990,2 53414  53.2162 220.5647 0002360  36.3365 323.7787 15.08824255 25094,6917.929,95.439,541.4259999999999,538.161,0.0
53414.0,STARLINK-4304,PAYLOAD,2023-01-18 20:58:46,15.08843025,0.0002279999999999,53.2155,217.8872,36.592,323.5227,0.00024747,3.653e-05,0.0,0 STARLINK-4304,1 53414U 22097AC  23018.87415439  .00003653  00000-0  24747-3 0  9996,2 53414  53.2155 217.8872 0002280  36.5920 323.5227 15.08843025 25188,6917.871,95.437,541.313,538.159,0.0
53414.0,STARLINK-4304,PAYLOAD,2023-01-19 12:52:38,15.08853749,0.0002378,53.2145,214.9146,35.1407,324.9742,0.00069529,0.00010799,0.0,0 STARLINK-4304,1 53414U 22097AC  23019.53655651  .00010799  00000-0  69529-3 0  9998,2 53414  53.2145 214.9146 0002378  35.1407 324.9742 15.08853749 25767,6917.838000000001,95.437,541.3480000000001,538.058,0.0
53414.0,STARLINK-4304,PAYLOAD,2023-01-20 06:21:52,15.08855826,0.0002444,53.2146,211.644,34.3477,325.7673,0.00031372,4.71e-05,0.0,0 STARLINK-4304,1 53414U 22097AC  23020.26518941  .00004710  00000-0  31372-3 0  9991,2 53414  53.2146 211.6440 0002444  34.3477 325.7673 15.08855826 25390,6917.831999999999,95.437,541.388,538.006,0.0
53414.0,STARLINK-4304,PAYLOAD,2023-01-20 20:40:20,15.08848659,0.0002423999999999,53.2147,208.9669,30.2886,329.8246,0.00012939,1.772e-05,0.0,0 STARLINK-4304,1 53414U 22097AC  23020.86134805  .00001772  00000-0  12939-3 0  9993,2 53414  53.2147 208.9669 0002424  30.2886 329.8246 15.08848659 25487,6917.854,95.437,541.396,538.0419999999999,0.0
53414.0,STARLINK-4304,PAYLOAD,2023-01-22 04:28:02,15.08832173,0.0003103999999999,53.2153,203.0179,19.648,340.4631,-0.0001181,-2.168e-05,0.0,0 STARLINK-4304,1 53414U 22097AC  23022.18614474 -.00002168  00000-0 -11810-3 0  9994,2 53414  53.2153 203.0179 0003104  19.6480 340.4631 15.08832173 25686,6917.904,95.438,541.9169999999999,537.622,0.0
53414.0,STARLINK-4304,PAYLOAD,2023-01-22 12:24:59,15.08834288,0.0002407,53.2156,201.5326,29.9626,330.1503,5.1511e-05,5.31e-06,0.0,0 STARLINK-4304,1 53414U 22097AC  23022.51735490  .00000531  00000-0  51511-4 0  9996,2 53414  53.2156 201.5326 0002407  29.9626 330.1503 15.08834288 25736,6917.898,95.438,541.428,538.0980000000001,0.0
53414.0,STARLINK-4304,PAYLOAD,2023-01-23 04:18:50,15.08847917,0.0002416,53.216,198.5589,34.6458,325.4692,0.00038069,5.777e-05,0.0,0 STARLINK-4304,1 53414U 22097AC  23023.17975175  .00005777  00000-0  38069-3 0  9994,2 53414  53.2160 198.5589 0002416  34.6458 325.4692 15.08847917 25833,6917.856,95.437,541.393,538.05,0.0
53414.0,STARLINK-4304,PAYLOAD,2023-01-23 18:37:18,15.08841734,0.0002458,53.2164,195.8812,32.1786,327.9356,0.00021347,3.111e-05,0.0,0 STARLINK-4304,1 53414U 22097AC  23023.77591206  .00003111  00000-0  21347-3 0  9990,2 53414  53.2164 195.8812 0002458  32.1786 327.9356 15.08841734 25924,6917.875,95.437,541.441,538.04,0.0
53414.0,STARLINK-4304,PAYLOAD,2023-01-25 04:00:24,15.08849394,0.0002499,53.217,189.6366,33.5274,326.5876,0.00010346,1.359e-05,0.0,0 STARLINK-4304,1 53414U 22097AC  23025.16694448  .00001359  00000-0  10346-3 0  9996,2 53414  53.2170 189.6366 0002499  33.5274 326.5876 15.08849394 26134,6917.852,95.437,541.445,537.988,0.0
53414.0,STARLINK-4304,PAYLOAD,2023-01-25 10:21:56,15.08848847,0.0002416,53.2166,188.4474,32.272,327.8419,1.658e-05,-2.4e-07,0.0,0 STARLINK-4304,1 53414U 22097AC  23025.43190327 -.00000024  00000-0  16580-4 0  9999,2 53414  53.2166 188.4474 0002416  32.2720 327.8419 15.08848847 26653,6917.853,95.437,541.39,538.047,0.0
53414.0,STARLINK-4304,PAYLOAD,2023-01-25 15:08:07,15.0882625,0.0002161,53.2166,187.5553,32.0807,328.0317,0.00067291,0.00010434,0.0,0 STARLINK-4304,1 53414U 22097AC  23025.63063752  .00010434  00000-0  67291-3 0  9991,2 53414  53.2166 187.5553 0002161  32.0807 328.0317 15.08826250 26207,6917.922,95.438,541.2819999999999,538.2919999999999,0.0
53414.0,STARLINK-4304,PAYLOAD,2023-01-25 18:18:52,15.08843281,0.0002369,53.2166,186.9609,32.5733,327.5405,0.00015742,2.218e-05,0.0,0 STARLINK-4304,1 53414U 22097AC  23025.76310569  .00002218  00000-0  15742-3 0  9991,2 53414  53.2166 186.9609 0002369  32.5733 327.5405 15.08843281 26222,6917.87,95.437,541.374,538.097,0.0
53414.0,STARLINK-4304,PAYLOAD,2023-01-26 13:23:29,15.08850935,0.000237,53.2171,183.3932,32.8543,327.2596,7.604399999999999e-05,9.22e-06,0.0,0 STARLINK-4304,1 53414U 22097AC  23026.55797957  .00000922  00000-0  76044-4 0  9992,2 53414  53.2171 183.3932 0002370  32.8543 327.2596 15.08850935 26820,6917.847,95.437,541.351,538.072,0.0
53414.0,STARLINK-4304,PAYLOAD,2023-01-26 19:45:01,15.08863988,0.0002489,53.2172,182.2045,30.822,329.2918,-0.00010129,-1.901e-05,0.0,0 STARLINK-4304,1 53414U 22097AC  23026.82293175 -.00001901  00000-0 -10129-3 0  9996,2 53414  53.2172 182.2045 0002489  30.8220 329.2918 15.08863988 26388,6917.807,95.436,541.394,537.95,0.0
53414.0,STARLINK-4304,PAYLOAD,2023-01-27 14:49:39,15.08840428,0.0002368,53.2173,178.636,33.8357,326.2786,4.2508e-05,3.88e-06,0.0,0 STARLINK-4304,1 53414U 22097AC  23027.61782228  .00000388  00000-0  42508-4 0  9999,2 53414  53.2173 178.6360 0002368  33.8357 326.2786 15.08840428 26506,6917.879,95.438,541.382,538.106,0.0
53414.0,STARLINK-4304,PAYLOAD,2023-01-27 16:25:03,15.08836736,0.0002211999999999,53.2179,178.338,33.9177,326.1956,1.2265e-07,-2.86e-06,0.0,0 STARLINK-4304,1 53414U 22097AC  23027.68406487 -.00000286  00000-0  12265-6 0  9993,2 53414  53.2179 178.3380 0002212  33.9177 326.1956 15.08836736 26998,6917.89,95.438,541.286,538.225,0.0
53414.0,STARLINK-4304,PAYLOAD,2023-01-28 13:05:03,15.08839926,0.0002015,53.2186,174.472,37.3042,322.809,-3.3154e-05,-8.16e-06,0.0,0 STARLINK-4304,1 53414U 22097AC  23028.54518305 -.00000816  00000-0 -33154-4 0  9990,2 53414  53.2186 174.4720 0002015  37.3042 322.8090 15.08839926 27123,6917.881,95.438,541.14,538.352,0.0
53414.0,STARLINK-4304,PAYLOAD,2023-01-28 19:26:36,15.08841179,0.0002091,53.218,173.2819,33.7568,326.3557,-3.2717e-05,-8.09e-06,0.0,0 STARLINK-4304,1 53414U 22097AC  23028.81014179 -.00000809  00000-0 -32717-4 0  9996,2 53414  53.2180 173.2819 0002091  33.7568 326.3557 15.08841179 26680,6917.877,95.437,541.188,538.295,0.0
53414.0,STARLINK-4304,PAYLOAD,2023-01-29 19:17:23,15.08838146,0.0002419,53.2181,168.8235,25.7293,334.3819,9.3161e-05,1.195e-05,0.0,0 STARLINK-4304,1 53414U 22097AC  23029.80374118  .00001195  00000-0  93161-4 0  9995,2 53414  53.2181 168.8235 0002419  25.7293 334.3819 15.08838146 27314,6917.886,95.438,541.424,538.078,0.0
53414.0,STARLINK-4304,PAYLOAD,2023-01-30 08:00:28,15.08833096,0.0002423,53.2174,166.4435,26.1429,333.9685,3.1774e-05,2.17e-06,0.0,0 STARLINK-4304,1 53414U 22097AC  23030.33366857  .00000217  00000-0  31774-4 0  9992,2 53414  53.2174 166.4435 0002423  26.1429 333.9685 15.08833096 26913,6917.901,95.438,541.443,538.09,0.0
53414.0,STARLINK-4304,PAYLOAD,2023-01-30 09:35:52,15.08831968,0.0002334,53.2181,166.1457,28.8326,331.2795,1.5075e-05,-4.8e-07,0.0,0 STARLINK-4304,1 53414U 22097AC  23030.39990962 -.00000048  00000-0  15075-4 0  9997,2 53414  53.2181 166.1457 0002334  28.8326 331.2795 15.08831968 27402,6917.905,95.438,541.385,538.155,0.0
53414.0,STARLINK-4304,PAYLOAD,2023-01-31 12:37:25,15.08836788,0.0002587,53.2181,161.0923,23.0387,337.0721,-4.4609e-06,-3.59e-06,0.0,0 STARLINK-4304,1 53414U 22097AC  23031.52599245 -.00000359  00000-0 -44609-5 0  9994,2 53414  53.2181 161.0923 0002587  23.0387 337.0721 15.08836788 27091,6917.89,95.438,541.545,537.966,0.0
53414.0,STARLINK-4304,PAYLOAD,2023-02-01 01:20:30,15.08845812,0.0002658,53.2176,158.7134,24.4129,335.6988,7.4305e-05,8.94e-06,0.0,0 STARLINK-4304,1 53414U 22097AC  23032.05590400  .00000894  00000-0  74305-4 0  9994,2 53414  53.2176 158.7134 0002658  24.4129 335.6988 15.08845812 27176,6917.863,95.437,541.566,537.889,0.0
53414.0,STARLINK-4304,PAYLOAD,2023-02-01 07:42:02,15.0884435,0.0002714,53.2175,157.5238,24.1757,335.9362,0.00013141,1.804e-05,0.0,0 STARLINK-4304,1 53414U 22097AC  23032.32086307  .00001804  00000-0  13141-3 0  9992,2 53414  53.2175 157.5238 0002714  24.1757 335.9362 15.08844350 27696,6917.867,95.437,541.61,537.855,0.0
53414.0,STARLINK-4304,PAYLOAD,2023-02-02 01:11:17,15.08841811,0.000289,53.2159,154.2517,24.2587,335.854,9.1537e-05,1.169e-05,0.0,0 STARLINK-4304,1 53414U 22097AC  23033.04950507  .00001169  00000-0  91537-4 0  9994,2 53414  53.2159 154.2517 0002890  24.2587 335.8540 15.08841811 27325,6917.875,95.437,541.739,537.741,0.0
53414.0,STARLINK-4304,PAYLOAD,2023-02-02 12:18:59,15.08838144,0.0002913,53.2161,152.1705,26.0399,334.0739,4.3796e-05,4.08e-06,0.0,0 STARLINK-4304,1 53414U 22097AC  23033.51318903  .00000408  00000-0  43796-4 0  9993,2 53414  53.2161 152.1705 0002913  26.0399 334.0739 15.08838144 27877,6917.886,95.438,541.766,537.736,0.0
53414.0,STARLINK-4304,PAYLOAD,2023-02-03 07:23:36,15.08846183,0.0002909,53.217,148.6029,25.1957,334.9176,3.5029e-10,-2.89e-06,0.0,0 STARLINK-4304,1 53414U 22097AC  23034.30806388 -.00000289  00000-0  35029-9 0  9993,2 53414  53.2170 148.6029 0002909  25.1957 334.9176 15.08846183 27518,6917.861,95.437,541.739,537.714,0.0
53414.0,STARLINK-4304,PAYLOAD,2023-02-04 07:14:24,15.08836754,0.0002897,53.2178,144.1431,24.3636,335.7493,5.2578e-05,5.48e-06,0.0,0 STARLINK-4304,1 53414U 22097AC  23035.30166673  .00000548  00000-0  52578-4 0  9990,2 53414  53.2178 144.1431 0002897  24.3636 335.7493 15.08836754 27665,6917.89,95.438,541.759,537.751,0.0
